STARLINK-5585           
1 57333U 23099F   26068.55529553 -.00000112  00000+0  68094-5 0  9991
2 57333  43.0018 249.9374 0001045 248.5296 111.5435 15.02536381146097
EINSTEIN PROBE          
1 58753U 24007A   26068.60284448  .00004372  00000+0  31977-3 0  9994
2 58753  28.9980 140.9090 0009522 248.3814 111.5770 15.01336938118581
