[{"OBJECT_NAME":"STARLINK-5585","OBJECT_ID":"2023-099F","EPOCH":"2026-03-09T13:19:37.533792","MEAN_MOTION":15.02536381,"ECCENTRICITY":0.00010454,"INCLINATION":43.0018,"RA_OF_ASC_NODE":249.9374,"ARG_OF_PERICENTER":248.5296,"MEAN_ANOMALY":111.5435,"EPHEMERIS_TYPE":0,"CLASSIFICATION_TYPE":"U","NORAD_CAT_ID":57333,"ELEMENT_SET_NO":999,"REV_AT_EPOCH":14609,"BSTAR":6.809423e-6,"MEAN_MOTION_DOT":-1.12e-6,"MEAN_MOTION_DDOT":0},{"OBJECT_NAME":"EINSTEIN PROBE","OBJECT_ID":"2024-007A","EPOCH":"2026-03-09T14:28:05.763072","MEAN_MOTION":15.01336938,"ECCENTRICITY":0.0009522,"INCLINATION":28.998,"RA_OF_ASC_NODE":140.909,"ARG_OF_PERICENTER":248.3814,"MEAN_ANOMALY":111.577,"EPHEMERIS_TYPE":0,"CLASSIFICATION_TYPE":"U","NORAD_CAT_ID":58753,"ELEMENT_SET_NO":999,"REV_AT_EPOCH":11858,"BSTAR":0.00031977,"MEAN_MOTION_DOT":4.372e-5,"MEAN_MOTION_DDOT":0}]
